
# G11 (GNSS)
1 48859U 21054A   26192.11622755 -.00000085  00000+0  00000+0 0  9997
2 48859  55.1622 331.4983 0026363 228.5416 258.2089  2.00567226 37235

# G14 (GNSS)
1 46826U 20078A   26192.68570515  .00000101  00000+0  00000+0 0  9990
2 46826  53.9777 209.7851 0074464 207.7295 143.8649  2.00564817 41996

# G18 (GNSS)
1 44506U 19056A   26192.58389041 -.00000086  00000+0  00000+0 0  9991
2 44506  55.6240 330.1738 0063287 198.1146 165.4440  2.00569835 50562

# G23 (GNSS)
1 45854U 20041A   26192.41369499 -.00000052  00000+0  00000+0 0  9994
2 45854  56.6850  28.0046 0064958 204.6094 333.3950  2.00557799 44520

# G28 (GNSS)
1 55268U 23009A   26191.13810753  .00000048  00000+0  00000+0 0  9997
2 55268  55.1236 147.6170 0006307 319.4575 219.6291  2.00569929 25702

# C39 (GNSS)
1 44337U 19035A   26192.80242917 -.00000107  00000+0  00000+0 0  9999
2 44337  55.2507 158.6472 0039634 216.4012 322.2372  1.00258537 25910

# C46 (GNSS)
1 44542U 19061A   26192.40537075  .00000094  00000+0  00000+0 0  9998
2 44542  54.3976 181.9112 0008587 359.5066   0.4938  1.86229238 46241

# C45 (GNSS)
1 44543U 19061B   26189.43788944  .00000122  00000+0  00000+0 0  9993
2 44543  54.3960 181.9796 0005860 339.6838 102.2392  1.86227401 46199

# C44 (GNSS)
1 44793U 19078A   26192.24557439 -.00000063  00000+0  00000+0 0  9999
2 44793  53.9127 298.9816 0005741  49.9615 310.1118  1.86227377 45096

# C43 (GNSS)
1 44794U 19078B   26189.16367219 -.00000063  00000+0  00000+0 0  9992
2 44794  53.8889 299.0507 0003790  48.5315 311.5256  1.86228045 45040

# C41 (GNSS)
1 44864U 19090A   26190.26823391 -.00000047  00000+0  00000+0 0  9997
2 44864  56.5775  62.0617 0016982 297.5653 280.5359  1.86231621 44648

# C42 (GNSS)
1 44865U 19090B   26192.70416400 -.00000043  00000+0  00000+0 0  9994
2 44865  56.5815  62.0158 0014661 312.6423 188.2045  1.86231333 44679

# C60 (GNSS)
1 45344U 20017A   26192.86594478 -.00000138  00000+0  00000+0 0  9992
2 45344   2.9111  47.6732 0002042  59.2331 214.6494  1.00269561 23506

# C61 (GNSS)
1 45807U 20040A   26192.80069582 -.00000351  00000+0  00000+0 0  9996
2 45807   2.5040  67.4759 0001762 327.4813 293.4558  1.00265664 22313

# C62 (GNSS)
1 56564U 23066A   26192.87781818 -.00000276  00000+0  00000+0 0  9995
2 56564   0.4632 337.9255 0004867 188.1650 219.7465  1.00273609 11645

# C50 (GNSS)
1 58654U 23207A   26192.46242552 -.00000046  00000+0  00000+0 0  9991
2 58654  55.7742  61.4842 0002528   2.9789 357.0884  1.86229625 17292

# E34 (GNSS)
1 49809U 21116A   26192.62286947 -.00000086  00000+0  00000+0 0  9998
2 49809  57.1523 341.0160 0002390 195.7836 160.7891  1.70475848 28593

# E10 (GNSS)
1 49810U 21116B   26191.27355816 -.00000080  00000+0  00000+0 0  9996
2 49810  57.1533 341.0513 0001790 180.2049 180.8962  1.70475962 28607

# R04 (GNSS)
1 44850U 19088A   26192.43092138 -.00000019  00000+0  00000+0 0  9996
2 44850  65.5781  72.9223 0012344 255.3717 104.5561  2.13103003 51230

# R11 (GNSS)
1 46805U 20075A   26192.34632256  .00000110  00000+0  00000+0 0  9998
2 46805  64.6015 191.6691 0009439 239.8003 120.1351  2.13100073 44424

# R12 (GNSS)
1 44299U 19030A   26192.63457279  .00000106  00000+0  00000+0 0  9999
2 44299  64.3707 191.7932 0013520 274.9315 259.4274  2.13102037 55441

# R16 (GNSS)
1 54377U 22161A   26192.64257159  .00000106  00000+0  00000+0 0  9992
2 54377  64.7436 191.8998 0012252 225.0441 134.8846  2.13101968 28154

# R19 (GNSS)
1 54031U 22130A   26192.33014715 -.00000064  00000+0  00000+0 0  9994
2 54031  64.2555 313.7175 0013036 180.6579 179.3456  2.13101618 29209

# R22 (GNSS)
1 52984U 22075A   26192.04119223 -.00000063  00000+0  00000+0 0  9994
2 52984  64.2833 313.6457 0010777 271.9721  87.9097  2.13102395 31220

# R24 (GNSS)
1 45358U 20018A   26188.87178822 -.00000052  00000+0  00000+0 0  9990
2 45358  64.3418 311.6924 0009213 230.0449 129.8870  2.13102711 49103
