OBJECT_NAME,OBJECT_ID,EPOCH,MEAN_MOTION,ECCENTRICITY,INCLINATION,RA_OF_ASC_NODE,ARG_OF_PERICENTER,MEAN_ANOMALY,EPHEMERIS_TYPE,CLASSIFICATION_TYPE,NORAD_CAT_ID,ELEMENT_SET_NO,REV_AT_EPOCH,BSTAR,MEAN_MOTION_DOT,MEAN_MOTION_DDOT
COSMOS 2534 (758),2019-030A,2026-07-11T15:13:47.089056,2.13102037,.001352,64.3707,191.7932,274.9315,259.4274,0,U,44299,999,5544,0,.106E-5,0
BEIDOU-3 IGSO-2 (C39),2019-035A,2026-07-11T19:15:29.880288,1.00258537,.0039634,55.2507,158.6472,216.4012,322.2372,0,U,44337,999,2591,0,-.107E-5,0
GPS BIII-2  (PRN 18),2019-056A,2026-07-11T14:00:48.131424,2.00569835,.0063287,55.6240,330.1738,198.1146,165.4440,0,U,44506,999,5056,0,-.86E-6,0
BEIDOU-3 M24 (C46),2019-061A,2026-07-11T09:43:44.032800,1.86229238,.0008587,54.3976,181.9112,359.5066,0.4938,0,U,44542,999,4624,0,.94E-6,0
BEIDOU-3 M23 (C45),2019-061B,2026-07-08T10:30:33.647616,1.86227401,.00058609,54.3960,181.9796,339.6838,102.2392,0,U,44543,999,4619,0,.122E-5,0
BEIDOU-3 M22 (C44),2019-078A,2026-07-11T05:53:37.627296,1.86227377,.0005741,53.9127,298.9816,49.9615,310.1118,0,U,44793,999,4509,0,-.63E-6,0
BEIDOU-3 M21 (C43),2019-078B,2026-07-08T03:55:41.277216,1.86228045,.00037906,53.8889,299.0507,48.5315,311.5256,0,U,44794,999,4504,0,-.63E-6,0
COSMOS 2544 (759),2019-088A,2026-07-11T10:20:31.607232,2.13103003,.0012344,65.5781,72.9223,255.3717,104.5561,0,U,44850,999,5123,0,-.19E-6,0
BEIDOU-3 M19 (C41),2019-090A,2026-07-09T06:26:15.409824,1.86231621,.0016982,56.5775,62.0617,297.5653,280.5359,0,U,44864,999,4464,0,-.47E-6,0
BEIDOU-3 M20 (C42),2019-090B,2026-07-11T16:53:59.769600,1.86231333,.0014661,56.5815,62.0158,312.6423,188.2045,0,U,44865,999,4467,0,-.43E-6,0
BEIDOU-3 G2 (C60),2020-017A,2026-07-11T20:46:57.628992,1.00269561,.0002042,2.9111,47.6732,59.2331,214.6494,0,U,45344,999,2350,0,-.138E-5,0
COSMOS 2545 (760),2020-018A,2026-07-07T20:55:22.502208,2.13102711,.00092133,64.3418,311.6924,230.0449,129.8870,0,U,45358,999,4910,0,-.52E-6,0
BEIDOU-3 G3 (C61),2020-040A,2026-07-11T19:13:00.118848,1.00265664,.0001762,2.5040,67.4759,327.4813,293.4558,0,U,45807,999,2231,0,-.351E-5,0
GPS BIII-3  (PRN 23),2020-041A,2026-07-11T09:55:43.247136,2.00557799,.00649587,56.6850,28.0046,204.6094,333.3950,0,U,45854,999,4452,0,-.52E-6,0
COSMOS 2547 (705K),2020-075A,2026-07-11T08:18:42.269184,2.13100073,.00094394,64.6015,191.6691,239.8003,120.1351,0,U,46805,999,4442,0,.11E-5,0
GPS BIII-4  (PRN 14),2020-078A,2026-07-11T16:27:24.924960,2.00564817,.00744645,53.9777,209.7851,207.7295,143.8649,0,U,46826,999,4199,0,.101E-5,0
GPS BIII-5  (PRN 11),2021-054A,2026-07-11T02:47:22.060320,2.00567226,.0026363,55.1622,331.4983,228.5416,258.2089,0,U,48859,999,3723,0,-.85E-6,0
GSAT0223 (GALILEO 27),2021-116A,2026-07-11T14:56:55.922208,1.70475848,.000239,57.1523,341.0160,195.7836,160.7891,0,U,49809,999,2859,0,-.86E-6,0
GSAT0224 (GALILEO 28),2021-116B,2026-07-10T06:33:55.425024,1.70475962,.000179,57.1533,341.0513,180.2049,180.8962,0,U,49810,999,2860,0,-.8E-6,0
COSMOS 2557 (706K),2022-075A,2026-07-11T00:59:19.008672,2.13102395,.0010777,64.2833,313.6457,271.9721,87.9097,0,U,52984,999,3122,0,-.63E-6,0
COSMOS 2559 (707K),2022-130A,2026-07-11T07:55:24.713760,2.13101618,.0013036,64.2555,313.7175,180.6579,179.3456,0,U,54031,999,2920,0,-.64E-6,0
COSMOS 2564 (761),2022-161A,2026-07-11T15:25:18.185376,2.13101968,.0012252,64.7436,191.8998,225.0441,134.8846,0,U,54377,999,2815,0,.106E-5,0
GPS BIII-6  (PRN 28),2023-009A,2026-07-10T03:18:52.490592,2.00569929,.0006307,55.1236,147.6170,319.4575,219.6291,0,U,55268,999,2570,0,.48E-6,0
BEIDOU-3 G4 (C62),2023-066A,2026-07-11T21:04:03.490752,1.00273609,.0004867,0.4632,337.9255,188.1650,219.7465,0,U,56564,999,1164,0,-.276E-5,0
BEIDOU-3 M28 (C50),2023-207A,2026-07-11T11:05:53.564928,1.86229625,.0002528,55.7742,61.4842,2.9789,357.0884,0,U,58654,999,1729,0,-.46E-6,0
